AUTCUBE 2               
1 43681U 18084K   26068.48152820  .00005282  00000+0  33524-3 0  9991
2 43681  98.0799 269.3640 0009685  28.2406 331.9345 15.09319394401889
STARLINK-4077           
1 53154U 22083Y   26068.53943150 -.00000824  00000+0 -33683-4 0  9997
2 53154  53.2175 164.7947 0001460 105.6098 254.5055 15.08838007201336
